{"type": "FeatureCollection", "features": [ {"type": "Feature", "properties": {"norad_id": 66816, "name": "STARLINK-36098", "group": "last-30-days", "lat": -22.40417745126628, "lon": -161.5737836996389, "alt_km": 345.9715333345239, "timestamp": "2025-12-17T04:57:43.203963+00:00", "meta": {"OBJECT_NAME": "STARLINK-36098", "OBJECT_ID": "2025-278AB", "EPOCH": "2025-12-16T22:00:03.000096", "MEAN_MOTION": 15.75028037, "ECCENTRICITY": 0.00015064, "INCLINATION": 42.9985, "RA_OF_ASC_NODE": 226.4458, "ARG_OF_PERICENTER": 277.6984, "MEAN_ANOMALY": 201.7484, "EPHEMERIS_TYPE": 0, "CLASSIFICATION_TYPE": "U", "NORAD_CAT_ID": 66816, "ELEMENT_SET_NO": 999, "REV_AT_EPOCH": 347, "BSTAR": 0.00010943751, "MEAN_MOTION_DOT": 0.00016357, "MEAN_MOTION_DDOT": 0}, "tle": {"line1": "1 66816U 25278AB  25350.91670139  .00016357  00000+0  10944-3 0  9994", "line2": "2 66816  42.9985 226.4458 0001506 277.6984 201.7484 15.75028037  3470"}}, "geometry": {"type": "Point", "coordinates": [-161.5737836996389, -22.40417745126628]}}, {"type": "Feature", "properties": {"norad_id": 66817, "name": "STARLINK-35995", "group": "last-30-days", "lat": -20.071402228378158, "lon": -158.41143045548603, "alt_km": 345.3264772795246, "timestamp": "2025-12-17T04:57:43.203973+00:00", "meta": {"OBJECT_NAME": "STARLINK-35995", "OBJECT_ID": "2025-278AC", "EPOCH": "2025-12-16T22:00:03.000096", "MEAN_MOTION": 15.7499658, "ECCENTRICITY": 0.00023786, "INCLINATION": 42.9985, "RA_OF_ASC_NODE": 226.4359, "ARG_OF_PERICENTER": 280.5137, "MEAN_ANOMALY": 202.6982, "EPHEMERIS_TYPE": 0, "CLASSIFICATION_TYPE": "U", "NORAD_CAT_ID": 66817, "ELEMENT_SET_NO": 999, "REV_AT_EPOCH": 363, "BSTAR": 0.00073990394, "MEAN_MOTION_DOT": 0.00114527, "MEAN_MOTION_DDOT": 0}, "tle": {"line1": "1 66817U 25278AC  25350.91670139  .00114527  00000+0  73990-3 0  9993", "line2": "2 66817  42.9985 226.4359 0002378 280.5137 202.6982 15.74996580  3639"}}, "geometry": {"type": "Point", "coordinates": [-158.41143045548603, -20.071402228378158]}}, {"type": "Feature", "properties": {"norad_id": 66818, "name": "STARLINK-35994", "group": "last-30-days", "lat": -21.21852715460667, "lon": -159.9435611374105, "alt_km": 345.9945558354739, "timestamp": "2025-12-17T04:57:43.203983+00:00", "meta": {"OBJECT_NAME": "STARLINK-35994", "OBJECT_ID": "2025-278AD", "EPOCH": "2025-12-16T22:00:03.000096", "MEAN_MOTION": 15.75035836, "ECCENTRICITY": 0.00016125, "INCLINATION": 42.9986, "RA_OF_ASC_NODE": 226.441, "ARG_OF_PERICENTER": 269.4309, "MEAN_ANOMALY": 211.94, "EPHEMERIS_TYPE": 0, "CLASSIFICATION_TYPE": "U", "NORAD_CAT_ID": 66818, "ELEMENT_SET_NO": 999, "REV_AT_EPOCH": 363, "BSTAR": -5.4584284e-05, "MEAN_MOTION_DOT": -8.852e-05, "MEAN_MOTION_DDOT": 0}, "tle": {"line1": "1 66818U 25278AD  25350.91670139 -.00008852  00000+0 -54584-4 0  9998", "line2": "2 66818  42.9986 226.4410 0001612 269.4309 211.9400 15.75035836  3633"}}, "geometry": {"type": "Point", "coordinates": [-159.9435611374105, -21.21852715460667]}}, {"type": "Feature", "properties": {"norad_id": 66819, "name": "STARLINK-35989", "group": "last-30-days", "lat": -18.795181873683962, "lon": -156.75240115830476, "alt_km": 345.7676168342323, "timestamp": "2025-12-17T04:57:43.203994+00:00", "meta": {"OBJECT_NAME": "STARLINK-35989", "OBJECT_ID": "2025-278AE", "EPOCH": "2025-12-16T22:00:03.000096", "MEAN_MOTION": 15.75123444, "ECCENTRICITY": 0.00019507, "INCLINATION": 42.9985, "RA_OF_ASC_NODE": 226.4308, "ARG_OF_PERICENTER": 267.7581, "MEAN_ANOMALY": 217.4274, "EPHEMERIS_TYPE": 0, "CLASSIFICATION_TYPE": "U", "NORAD_CAT_ID": 66819, "ELEMENT_SET_NO": 999, "REV_AT_EPOCH": 363, "BSTAR": -0.0010335371, "MEAN_MOTION_DOT": -0.00156912, "MEAN_MOTION_DDOT": 0}, "tle": {"line1": "1 66819U 25278AE  25350.91670139 -.00156912  00000+0 -10335-2 0  9994", "line2": "2 66819  42.9985 226.4308 0001950 267.7581 217.4274 15.75123444  3630"}}, "geometry": {"type": "Point", "coordinates": [-156.75240115830476, -18.795181873683962]}}, {"type": "Feature", "properties": {"norad_id": 66820, "name": "KOMPSAT-7", "group": "last-30-days", "lat": -43.94317197350399, "lon": -55.57975220440624, "alt_km": 578.4455523931483, "timestamp": "2025-12-17T04:57:43.204003+00:00", "meta": {"OBJECT_NAME": "KOMPSAT-7", "OBJECT_ID": "2025-279A", "EPOCH": "2025-12-14T22:41:19.689792", "MEAN_MOTION": 14.98965885, "ECCENTRICITY": 0.00087651, "INCLINATION": 97.6417, "RA_OF_ASC_NODE": 294.7686, "ARG_OF_PERICENTER": 217.2843, "MEAN_ANOMALY": 142.7773, "EPHEMERIS_TYPE": 0, "CLASSIFICATION_TYPE": "U", "NORAD_CAT_ID": 66820, "ELEMENT_SET_NO": 999, "REV_AT_EPOCH": 198, "BSTAR": 0.00023616624, "MEAN_MOTION_DOT": 2.802e-05, "MEAN_MOTION_DDOT": 0}, "tle": {"line1": "1 66820U 25279A   25348.94536678  .00002802  00000+0  23617-3 0  9990", "line2": "2 66820  97.6417 294.7686 0008765 217.2843 142.7773 14.98965885  1985"}}, "geometry": {"type": "Point", "coordinates": [-55.57975220440624, -43.94317197350399]}}, {"type": "Feature", "properties": {"norad_id": 66821, "name": "STARLINK-35966", "group": "last-30-days", "lat": 67.18219129260774, "lon": -113.794068806691, "alt_km": 372.93925997203223, "timestamp": "2025-12-17T04:57:43.204012+00:00", "meta": {"OBJECT_NAME": "STARLINK-35966", "OBJECT_ID": "2025-280A", "EPOCH": "2025-12-16T22:00:03.000096", "MEAN_MOTION": 15.64606602, "ECCENTRICITY": 0.0003352, "INCLINATION": 69.9997, "RA_OF_ASC_NODE": 187.0466, "ARG_OF_PERICENTER": 271.5729, "MEAN_ANOMALY": 334.6713, "EPHEMERIS_TYPE": 0, "CLASSIFICATION_TYPE": "U", "NORAD_CAT_ID": 66821, "ELEMENT_SET_NO": 999, "REV_AT_EPOCH": 356, "BSTAR": -0.022751732, "MEAN_MOTION_DOT": -0.01950122, "MEAN_MOTION_DDOT": 0}, "tle": {"line1": "1 66821U 25280A   25350.91670139 -.01950122  00000+0 -22752-1 0  9991", "line2": "2 66821  69.9997 187.0466 0003352 271.5729 334.6713 15.64606602  3569"}}, "geometry": {"type": "Point", "coordinates": [-113.794068806691, 67.18219129260774]}}, {"type": "Feature", "properties": {"norad_id": 66822, "name": "STARLINK-35958", "group": "last-30-days", "lat": 68.02340570991586, "lon": -109.2620780542606, "alt_km": 372.6821549632241, "timestamp": "2025-12-17T04:57:43.204021+00:00", "meta": {"OBJECT_NAME": "STARLINK-35958", "OBJECT_ID": "2025-280B", "EPOCH": "2025-12-16T22:00:03.000096", "MEAN_MOTION": 15.64590758, "ECCENTRICITY": 0.00030865, "INCLINATION": 69.9997, "RA_OF_ASC_NODE": 187.0456, "ARG_OF_PERICENTER": 275.4619, "MEAN_ANOMALY": 332.7099, "EPHEMERIS_TYPE": 0, "CLASSIFICATION_TYPE": "U", "NORAD_CAT_ID": 66822, "ELEMENT_SET_NO": 999, "REV_AT_EPOCH": 356, "BSTAR": -0.022580581, "MEAN_MOTION_DOT": -0.01935832, "MEAN_MOTION_DDOT": 0}, "tle": {"line1": "1 66822U 25280B   25350.91670139 -.01935832  00000+0 -22581-1 0  9993", "line2": "2 66822  69.9997 187.0456 0003086 275.4619 332.7099 15.64590758  3564"}}, "geometry": {"type": "Point", "coordinates": [-109.2620780542606, 68.02340570991586]}}, {"type": "Feature", "properties": {"norad_id": 66823, "name": "STARLINK-35957", "group": "last-30-days", "lat": 68.7299782687036, "lon": -104.42585559852499, "alt_km": 372.9321904951403, "timestamp": "2025-12-17T04:57:43.204031+00:00", "meta": {"OBJECT_NAME": "STARLINK-35957", "OBJECT_ID": "2025-280C", "EPOCH": "2025-12-16T22:00:03.000096", "MEAN_MOTION": 15.6462716, "ECCENTRICITY": 0.00034593, "INCLINATION": 69.9994, "RA_OF_ASC_NODE": 187.0424, "ARG_OF_PERICENTER": 270.0041, "MEAN_ANOMALY": 340.0683, "EPHEMERIS_TYPE": 0, "CLASSIFICATION_TYPE": "U", "NORAD_CAT_ID": 66823, "ELEMENT_SET_NO": 999, "REV_AT_EPOCH": 356, "BSTAR": -0.023273387, "MEAN_MOTION_DOT": -0.01991042, "MEAN_MOTION_DDOT": 0}, "tle": {"line1": "1 66823U 25280C   25350.91670139 -.01991042  00000+0 -23273-1 0  9998", "line2": "2 66823  69.9994 187.0424 0003459 270.0041 340.0683 15.64627160  3560"}}, "geometry": {"type": "Point", "coordinates": [-104.42585559852499, 68.7299782687036]}}, {"type": "Feature", "properties": {"norad_id": 66824, "name": "STARLINK-35896", "group": "last-30-days", "lat": 69.29124532863452, "lon": -99.29923413624272, "alt_km": 372.8954424037411, "timestamp": "2025-12-17T04:57:43.204040+00:00", "meta": {"OBJECT_NAME": "STARLINK-35896", "OBJECT_ID": "2025-280D", "EPOCH": "2025-12-16T22:00:03.000096", "MEAN_MOTION": 15.6462829, "ECCENTRICITY": 0.00034824, "INCLINATION": 69.9998, "RA_OF_ASC_NODE": 187.0404, "ARG_OF_PERICENTER": 271.8665, "MEAN_ANOMALY": 340.1211, "EPHEMERIS_TYPE": 0, "CLASSIFICATION_TYPE": "U", "NORAD_CAT_ID": 66824, "ELEMENT_SET_NO": 999, "REV_AT_EPOCH": 356, "BSTAR": -0.023265172, "MEAN_MOTION_DOT": -0.01990524, "MEAN_MOTION_DDOT": 0}, "tle": {"line1": "1 66824U 25280D   25350.91670139 -.01990524  00000+0 -23265-1 0  9994", "line2": "2 66824  69.9998 187.0404 0003482 271.8665 340.1211 15.64628290  3563"}}, "geometry": {"type": "Point", "coordinates": [-99.29923413624272, 69.29124532863452]}}, {"type": "Feature", "properties": {"norad_id": 66825, "name": "STARLINK-35476", "group": "last-30-days", "lat": 69.69222966952418, "lon": -93.94423226745539, "alt_km": 372.7006235760837, "timestamp": "2025-12-17T04:57:43.204050+00:00", "meta": {"OBJECT_NAME": "STARLINK-35476", "OBJECT_ID": "2025-280E", "EPOCH": "2025-12-16T22:00:03.000096", "MEAN_MOTION": 15.6460923, "ECCENTRICITY": 0.00032737, "INCLINATION": 69.9994, "RA_OF_ASC_NODE": 187.0383, "ARG_OF_PERICENTER": 274.1754, "MEAN_ANOMALY": 339.7339, "EPHEMERIS_TYPE": 0, "CLASSIFICATION_TYPE": "U", "NORAD_CAT_ID": 66825, "ELEMENT_SET_NO": 999, "REV_AT_EPOCH": 342, "BSTAR": -0.022822048, "MEAN_MOTION_DOT": -0.01955553, "MEAN_MOTION_DDOT": 0}, "tle": {"line1": "1 66825U 25280E   25350.91670139 -.01955553  00000+0 -22822-1 0  9996", "line2": "2 66825  69.9994 187.0383 0003273 274.1754 339.7339 15.64609230  3422"}}, "geometry": {"type": "Point", "coordinates": [-93.94423226745539, 69.69222966952418]}}]}